GLOBALSTAR M080         
1 38041U 11080B   26197.46284883 -.00000079  00000+0  13994-3 0  9999
2 38041  52.0068 289.8875 0000293  81.0928 359.4146 12.62257497672583
GLOBALSTAR M082         
1 38042U 11080C   26197.31964852 -.00000080  00000+0  13065-3 0  9996
2 38042  52.0062 245.8274 0000197  83.2035 356.2318 12.62264284673274
GLOBALSTAR M092         
1 38043U 11080D   26197.61078683 -.00000092  00000+0  67119-4 0  9991
2 38043  52.0105 335.3381 0000772 105.8731 336.5591 12.62267797671768
GLOBALSTAR M090         
1 38044U 11080E   26197.52359487 -.00000076  00000+0  15383-3 0  9993
2 38044  52.0104 239.1716 0000423  89.7355  75.7166 12.62269582673414
GLOBALSTAR M086         
1 38045U 11080F   26197.43207166 -.00000091  00000+0  72064-4 0  9997
2 38045  51.9878 239.3311 0001488 113.3684 259.7771 12.62287821673350
GLOBALSTAR M097         
1 39072U 13005A   26197.30261826 -.00000124  00000+0 -11186-3 0  9991
2 39072  52.0028 154.7050 0000469  41.0496 319.0406 12.62271360620589
GLOBALSTAR M093         
1 39073U 13005B   26197.59259324 -.00000112  00000+0 -45422-4 0  9991
2 39073  52.0090 147.1804 0000691  46.4566 313.6358 12.62266331620573
GLOBALSTAR M094         
1 39074U 13005C   26197.59244975 -.00000088  00000+0  89104-4 0  9994
2 39074  51.9971  61.2691 0001021  64.7871 295.3102 12.62264192622185
GLOBALSTAR M096         
1 39075U 13005D   26197.76434407 -.00000090  00000+0  75295-4 0  9994
2 39075  52.0072 109.5700 0000776  44.9156 315.1774 12.62265729621125
GLOBALSTAR M078         
1 39076U 13005E   26197.18318523 -.00000123  00000+0 -10859-3 0  9993
2 39076  51.9845 195.3095 0000854 340.9625  19.1209 12.62260137619678
GLOBALSTAR M095         
1 39077U 13005F   26197.36823161 -.00000122  00000+0 -99959-4 0  9991
2 39077  52.0053 192.3909 0000484  14.8073 345.2808 12.62264129619556
GLOBALSTAR M087         
1 52888U 22064A   26197.77725823 -.00000090  00000+0  75185-4 0  9990
2 52888  52.0017 332.3678 0000904  86.2916 273.8054 12.62269388194870
