{"fetched_at":"2026-07-17T06:37:46.041Z","source":"https://celestrak.org/NORAD/elements/gp.php?GROUP=globalstar&FORMAT=JSON","constellation":"globalstar","records":[{"OBJECT_NAME":"GLOBALSTAR M080","OBJECT_ID":"2011-080B","EPOCH":"2026-07-16T11:06:30.138912","CLASSIFICATION_TYPE":"U","MEAN_MOTION":12.62257497,"ECCENTRICITY":0.0000293,"INCLINATION":52.0068,"RA_OF_ASC_NODE":289.8875,"ARG_OF_PERICENTER":81.0928,"MEAN_ANOMALY":359.4146,"EPHEMERIS_TYPE":0,"NORAD_CAT_ID":38041,"ELEMENT_SET_NO":999,"REV_AT_EPOCH":67258,"BSTAR":0.00013994,"MEAN_MOTION_DOT":-7.9e-7,"MEAN_MOTION_DDOT":0},{"OBJECT_NAME":"GLOBALSTAR M082","OBJECT_ID":"2011-080C","EPOCH":"2026-07-16T07:40:17.632128","CLASSIFICATION_TYPE":"U","MEAN_MOTION":12.62264284,"ECCENTRICITY":0.0000197,"INCLINATION":52.0062,"RA_OF_ASC_NODE":245.8274,"ARG_OF_PERICENTER":83.2035,"MEAN_ANOMALY":356.2318,"EPHEMERIS_TYPE":0,"NORAD_CAT_ID":38042,"ELEMENT_SET_NO":999,"REV_AT_EPOCH":67327,"BSTAR":0.00013065,"MEAN_MOTION_DOT":-8e-7,"MEAN_MOTION_DDOT":0},{"OBJECT_NAME":"GLOBALSTAR M092","OBJECT_ID":"2011-080D","EPOCH":"2026-07-16T14:39:31.982112","CLASSIFICATION_TYPE":"U","MEAN_MOTION":12.62267797,"ECCENTRICITY":0.0000772,"INCLINATION":52.0105,"RA_OF_ASC_NODE":335.3381,"ARG_OF_PERICENTER":105.8731,"MEAN_ANOMALY":336.5591,"EPHEMERIS_TYPE":0,"NORAD_CAT_ID":38043,"ELEMENT_SET_NO":999,"REV_AT_EPOCH":67176,"BSTAR":0.000067119,"MEAN_MOTION_DOT":-9.2e-7,"MEAN_MOTION_DDOT":0},{"OBJECT_NAME":"GLOBALSTAR M090","OBJECT_ID":"2011-080E","EPOCH":"2026-07-16T12:33:58.596768","CLASSIFICATION_TYPE":"U","MEAN_MOTION":12.62269582,"ECCENTRICITY":0.0000423,"INCLINATION":52.0104,"RA_OF_ASC_NODE":239.1716,"ARG_OF_PERICENTER":89.7355,"MEAN_ANOMALY":75.7166,"EPHEMERIS_TYPE":0,"NORAD_CAT_ID":38044,"ELEMENT_SET_NO":999,"REV_AT_EPOCH":67341,"BSTAR":0.00015383,"MEAN_MOTION_DOT":-7.6e-7,"MEAN_MOTION_DDOT":0},{"OBJECT_NAME":"GLOBALSTAR M086","OBJECT_ID":"2011-080F","EPOCH":"2026-07-16T10:22:10.991424","CLASSIFICATION_TYPE":"U","MEAN_MOTION":12.62287821,"ECCENTRICITY":0.0001488,"INCLINATION":51.9878,"RA_OF_ASC_NODE":239.3311,"ARG_OF_PERICENTER":113.3684,"MEAN_ANOMALY":259.7771,"EPHEMERIS_TYPE":0,"NORAD_CAT_ID":38045,"ELEMENT_SET_NO":999,"REV_AT_EPOCH":67335,"BSTAR":0.000072064,"MEAN_MOTION_DOT":-9.1e-7,"MEAN_MOTION_DDOT":0},{"OBJECT_NAME":"GLOBALSTAR M097","OBJECT_ID":"2013-005A","EPOCH":"2026-07-16T07:15:46.217664","CLASSIFICATION_TYPE":"U","MEAN_MOTION":12.6227136,"ECCENTRICITY":0.0000469,"INCLINATION":52.0028,"RA_OF_ASC_NODE":154.705,"ARG_OF_PERICENTER":41.0496,"MEAN_ANOMALY":319.0406,"EPHEMERIS_TYPE":0,"NORAD_CAT_ID":39072,"ELEMENT_SET_NO":999,"REV_AT_EPOCH":62058,"BSTAR":-0.00011186,"MEAN_MOTION_DOT":-0.00000124,"MEAN_MOTION_DDOT":0},{"OBJECT_NAME":"GLOBALSTAR M093","OBJECT_ID":"2013-005B","EPOCH":"2026-07-16T14:13:20.055936","CLASSIFICATION_TYPE":"U","MEAN_MOTION":12.62266331,"ECCENTRICITY":0.0000691,"INCLINATION":52.009,"RA_OF_ASC_NODE":147.1804,"ARG_OF_PERICENTER":46.4566,"MEAN_ANOMALY":313.6358,"EPHEMERIS_TYPE":0,"NORAD_CAT_ID":39073,"ELEMENT_SET_NO":999,"REV_AT_EPOCH":62057,"BSTAR":-0.000045422,"MEAN_MOTION_DOT":-0.00000112,"MEAN_MOTION_DDOT":0},{"OBJECT_NAME":"GLOBALSTAR M094","OBJECT_ID":"2013-005C","EPOCH":"2026-07-16T14:13:07.658400","CLASSIFICATION_TYPE":"U","MEAN_MOTION":12.62264192,"ECCENTRICITY":0.0001021,"INCLINATION":51.9971,"RA_OF_ASC_NODE":61.2691,"ARG_OF_PERICENTER":64.7871,"MEAN_ANOMALY":295.3102,"EPHEMERIS_TYPE":0,"NORAD_CAT_ID":39074,"ELEMENT_SET_NO":999,"REV_AT_EPOCH":62218,"BSTAR":0.000089104,"MEAN_MOTION_DOT":-8.8e-7,"MEAN_MOTION_DDOT":0},{"OBJECT_NAME":"GLOBALSTAR M096","OBJECT_ID":"2013-005D","EPOCH":"2026-07-16T18:20:39.327648","CLASSIFICATION_TYPE":"U","MEAN_MOTION":12.62265729,"ECCENTRICITY":0.0000776,"INCLINATION":52.0072,"RA_OF_ASC_NODE":109.57,"ARG_OF_PERICENTER":44.9156,"MEAN_ANOMALY":315.1774,"EPHEMERIS_TYPE":0,"NORAD_CAT_ID":39075,"ELEMENT_SET_NO":999,"REV_AT_EPOCH":62112,"BSTAR":0.000075295,"MEAN_MOTION_DOT":-9e-7,"MEAN_MOTION_DDOT":0},{"OBJECT_NAME":"GLOBALSTAR M078","OBJECT_ID":"2013-005E","EPOCH":"2026-07-16T04:23:47.203872","CLASSIFICATION_TYPE":"U","MEAN_MOTION":12.62260137,"ECCENTRICITY":0.0000854,"INCLINATION":51.9845,"RA_OF_ASC_NODE":195.3095,"ARG_OF_PERICENTER":340.9625,"MEAN_ANOMALY":19.1209,"EPHEMERIS_TYPE":0,"NORAD_CAT_ID":39076,"ELEMENT_SET_NO":999,"REV_AT_EPOCH":61967,"BSTAR":-0.00010859,"MEAN_MOTION_DOT":-0.00000123,"MEAN_MOTION_DDOT":0},{"OBJECT_NAME":"GLOBALSTAR M095","OBJECT_ID":"2013-005F","EPOCH":"2026-07-16T08:50:15.211104","CLASSIFICATION_TYPE":"U","MEAN_MOTION":12.62264129,"ECCENTRICITY":0.0000484,"INCLINATION":52.0053,"RA_OF_ASC_NODE":192.3909,"ARG_OF_PERICENTER":14.8073,"MEAN_ANOMALY":345.2808,"EPHEMERIS_TYPE":0,"NORAD_CAT_ID":39077,"ELEMENT_SET_NO":999,"REV_AT_EPOCH":61955,"BSTAR":-0.000099959,"MEAN_MOTION_DOT":-0.00000122,"MEAN_MOTION_DDOT":0},{"OBJECT_NAME":"GLOBALSTAR M087","OBJECT_ID":"2022-064A","EPOCH":"2026-07-16T18:39:15.111072","CLASSIFICATION_TYPE":"U","MEAN_MOTION":12.62269388,"ECCENTRICITY":0.0000904,"INCLINATION":52.0017,"RA_OF_ASC_NODE":332.3678,"ARG_OF_PERICENTER":86.2916,"MEAN_ANOMALY":273.8054,"EPHEMERIS_TYPE":0,"NORAD_CAT_ID":52888,"ELEMENT_SET_NO":999,"REV_AT_EPOCH":19487,"BSTAR":0.000075185,"MEAN_MOTION_DOT":-9e-7,"MEAN_MOTION_DDOT":0}]}
